NORAD_CAT_ID,OBJECT_NAME,OBJECT_TYPE,EPOCH,MEAN_MOTION,ECCENTRICITY,INCLINATION,RA_OF_ASC_NODE,ARG_OF_PERICENTER,MEAN_ANOMALY,BSTAR,MEAN_MOTION_DOT,MEAN_MOTION_DDOT,TLE_LINE0,TLE_LINE1,TLE_LINE2,SEMIMAJOR_AXIS,PERIOD,APOGEE,PERIGEE,DECAYED
53848.0,STARLINK-4780,PAYLOAD,2022-12-01 14:00:01,15.44913554,0.0001272,53.2174,256.2692,86.4702,113.5864,-0.02611,-0.01140383,0.0,0 STARLINK-4780,1 53848U 22114AG  22335.58334491 -.01140383  00000-0 -26110-1 0  9993,2 53848  53.2174 256.2692 0001272  86.4702 113.5864 15.44913554  1306,6809.769,93.209,432.5,430.768,0.0
53848.0,STARLINK-4780,PAYLOAD,2022-12-01 22:00:00,15.4415608,0.0001232,53.2167,254.6895,94.2165,160.2555,-0.028754,-0.01216192,0.0,0 STARLINK-4780,1 53848U 22114AG  22335.91667824 -.01216192  00000-0 -28754-1 0  9997,2 53848  53.2167 254.6895 0001232  94.2165 160.2555 15.44156080 12188,6811.996,93.255,434.7,433.022,0.0
53848.0,STARLINK-4780,PAYLOAD,2022-12-02 14:00:01,15.424798499999998,0.0001068,53.217,251.5347,75.4577,284.9935,-0.028663,-0.01151218,0.0,0 STARLINK-4780,1 53848U 22114AG  22336.58334491 -.01151218  00000-0 -28663-1 0  9998,2 53848  53.2170 251.5347 0001068  75.4577 284.9935 15.42479850  1315,6816.93,93.356,439.523,438.067,0.0
53848.0,STARLINK-4780,PAYLOAD,2022-12-02 16:00:00,15.42268821,0.0001221,53.2172,251.1404,73.0091,30.4154,-0.028593,-0.01141221,0.0,0 STARLINK-4780,1 53848U 22114AG  22336.66667824 -.01141221  00000-0 -28593-1 0  9991,2 53848  53.2172 251.1404 0001221  73.0091  30.4154 15.42268821 12305,6817.552,93.369,440.249,438.585,0.0
53848.0,STARLINK-4780,PAYLOAD,2022-12-02 22:00:00,15.41684568,0.0001181,53.2167,249.9605,83.1352,328.8168,-0.030134,-0.01175963,0.0,0 STARLINK-4780,1 53848U 22114AG  22336.91667824 -.01175963  00000-0 -30134-1 0  9993,2 53848  53.2167 249.9605 0001181  83.1352 328.8168 15.41684568  1300,6819.274,93.404,441.945,440.334,0.0
53848.0,STARLINK-4780,PAYLOAD,2022-12-03 14:00:01,15.40037287,0.0001359,53.2171,246.8173,69.7934,82.2558,-0.03103,-0.0114868,0.0,0 STARLINK-4780,1 53848U 22114AG  22337.58334491 -.01148680  00000-0 -31030-1 0  9990,2 53848  53.2171 246.8173 0001359  69.7934  82.2558 15.40037287 12444,6824.136,93.504,446.929,445.074,0.0
53848.0,STARLINK-4780,PAYLOAD,2022-12-03 22:00:00,15.39241488,0.000127,53.217,245.2491,79.3969,121.2196,-0.0325769999999999,-0.01172272,0.0,0 STARLINK-4780,1 53848U 22114AG  22337.91667824 -.01172272  00000-0 -32577-1 0  9997,2 53848  53.2170 245.2491 0001270  79.3969 121.2196 15.39241488  1309,6826.488,93.553,449.22,447.486,0.0
53848.0,STARLINK-4780,PAYLOAD,2022-12-04 14:00:01,15.375860500000002,0.0001159,53.2172,242.1174,68.292,226.5581,-0.033156,-0.01133496,0.0,0 STARLINK-4780,1 53848U 22114AG  22338.58334491 -.01133496  00000-0 -33156-1 0  9991,2 53848  53.2172 242.1174 0001159  68.2920 226.5581 15.37586050 12590,6831.387,93.653,454.044,452.46,0.0
53848.0,STARLINK-4780,PAYLOAD,2022-12-04 22:00:00,15.36804653,0.0001097,53.2171,240.555,87.3013,253.1756,-0.035447,-0.01177088,0.0,0 STARLINK-4780,1 53848U 22114AG  22338.91667824 -.01177088  00000-0 -35447-1 0  9997,2 53848  53.2171 240.5550 0001097  87.3013 253.1756 15.36804653  1303,6833.7019999999975,93.701,456.317,454.818,0.0
53848.0,STARLINK-4780,PAYLOAD,2022-12-05 06:00:00,15.35987452,0.0001214,53.2167,238.9953,62.8234,322.3193,-0.036193,-0.01171038,0.0,0 STARLINK-4780,1 53848U 22114AG  22339.25001157 -.01171038  00000-0 -36193-1 0  9994,2 53848  53.2167 238.9953 0001214  62.8234 322.3193 15.35987452 12708,6836.126,93.751,458.821,457.161,0.0
53848.0,STARLINK-4780,PAYLOAD,2022-12-05 14:00:01,15.35155223,0.0001273,53.2172,237.4346,58.0877,10.8178,-0.036385,-0.01148241,0.0,0 STARLINK-4780,1 53848U 22114AG  22339.58335648 -.01148241  00000-0 -36385-1 0  9998,2 53848  53.2172 237.4346 0001273  58.0877  10.8178 15.35155223  1308,6838.596,93.802,461.332,459.591,0.0
53848.0,STARLINK-4780,PAYLOAD,2022-12-05 22:00:01,15.34334481,0.0001426999999999,53.2176,235.8787,57.2115,54.4063,-0.037005,-0.01138421,0.0,0 STARLINK-4780,1 53848U 22114AG  22339.91668981 -.01138421  00000-0 -37005-1 0  9993,2 53848  53.2176 235.8787 0001427  57.2115  54.4063 15.34334481  1301,6841.035,93.852,463.876,461.924,0.0
53848.0,STARLINK-4780,PAYLOAD,2022-12-06 08:00:01,15.33327792,0.0001306,53.2167,233.9351,71.4082,182.1528,-0.038761,-0.01153305,0.0,0 STARLINK-4780,1 53848U 22114AG  22340.33334491 -.01153305  00000-0 -38761-1 0  9995,2 53848  53.2167 233.9351 0001306  71.4082 182.1528 15.33327792 12868,6844.029,93.913,466.788,465.0,0.0
53848.0,STARLINK-4780,PAYLOAD,2022-12-06 14:00:01,15.32713541,0.0001378,53.2169,232.7694,68.1097,125.991,-0.039289,-0.01147062,0.0,0 STARLINK-4780,1 53848U 22114AG  22340.58335648 -.01147062  00000-0 -39289-1 0  9996,2 53848  53.2169 232.7694 0001378  68.1097 125.9910 15.32713541  1302,6845.857,93.951,468.666,466.779,0.0
53848.0,STARLINK-4780,PAYLOAD,2022-12-06 22:00:00,15.31923475,0.0001296999999999,53.2171,231.2193,90.4406,143.3591,-0.041443,-0.01177142,0.0,0 STARLINK-4780,1 53848U 22114AG  22340.91667824 -.01177142  00000-0 -41443-1 0  9994,2 53848  53.2171 231.2193 0001297  90.4406 143.3591 15.31923475  1302,6848.2109999999975,93.999,470.964,469.18800000000016,0.0
53848.0,STARLINK-4780,PAYLOAD,2022-12-07 14:00:01,15.30263531,0.0001185,53.2174,228.1212,77.3937,233.0419,-0.041908,-0.01134037,0.0,0 STARLINK-4780,1 53848U 22114AG  22341.58334491 -.01134037  00000-0 -41908-1 0  9991,2 53848  53.2174 228.1212 0001185  77.3937 233.0419 15.30263531 13051,6853.1619999999975,94.101,475.839,474.215,0.0
53848.0,STARLINK-4780,PAYLOAD,2022-12-08 00:00:00,15.29263403,0.0001286,53.2172,226.1916,88.4469,357.8805,-0.044267,-0.01158814,0.0,0 STARLINK-4780,1 53848U 22114AG  22342.00001157 -.01158814  00000-0 -44267-1 0  9999,2 53848  53.2172 226.1916 0001286  88.4469 357.8805 15.29263403  1308,6856.15,94.163,478.897,477.133,0.0
53848.0,STARLINK-4780,PAYLOAD,2022-12-08 08:00:01,15.284346,0.0001267,53.2173,224.6476,89.7237,32.231,-0.044464,-0.01136636,0.0,0 STARLINK-4780,1 53848U 22114AG  22342.33334491 -.01136636  00000-0 -44464-1 0  9992,2 53848  53.2173 224.6476 0001267  89.7237  32.2310 15.28434600 13170,6858.628000000002,94.214,481.362,479.624,0.0
53848.0,STARLINK-4780,PAYLOAD,2022-12-08 14:00:01,15.2782812,0.0001304,53.2166,223.4908,58.9691,359.0574,-0.04553,-0.01141869,0.0,0 STARLINK-4780,1 53848U 22114AG  22342.58334491 -.01141869  00000-0 -45530-1 0  9998,2 53848  53.2166 223.4908 0001304  58.9691 359.0574 15.27828120  1300,6860.443,94.251,483.203,481.414,0.0
53848.0,STARLINK-4780,PAYLOAD,2022-12-08 16:54:10,15.29864139,0.0001445,53.2136,222.9366,155.0418,205.0653,-0.011976,-0.00336024,0.0,0 STARLINK-4780,1 53848U 22114AG  22342.70428800 -.00336024  00000-0 -11976-1 0  9995,2 53848  53.2136 222.9366 0001445 155.0418 205.0653 15.29864139 13775,6854.355,94.126,477.211,475.23,0.0
53848.0,STARLINK-4780,PAYLOAD,2022-12-09 06:00:02,15.26213683,0.0001345,53.2161,220.4147,71.4322,53.4903,-0.048586,-0.01173959,0.0,0 STARLINK-4780,1 53848U 22114AG  22343.25002315 -.01173959  00000-0 -48586-1 0  9999,2 53848  53.2161 220.4147 0001345  71.4322  53.4903 15.26213683 13319,6865.28,94.351,488.069,486.222,0.0
53848.0,STARLINK-4780,PAYLOAD,2022-12-09 14:00:01,15.25394876,0.0001405,53.2167,218.8776,67.5806,89.2356,-0.049577,-0.0116896,0.0,0 STARLINK-4780,1 53848U 22114AG  22343.58334491 -.01168960  00000-0 -49577-1 0  9995,2 53848  53.2167 218.8776 0001405  67.5806  89.2356 15.25394876  1302,6867.736999999999,94.402,490.567,488.637,0.0
53848.0,STARLINK-4780,PAYLOAD,2022-12-10 08:00:01,15.23553175,0.0001256,53.2174,215.4292,67.5532,247.6509,-0.051653,-0.01153517,0.0,0 STARLINK-4780,1 53848U 22114AG  22344.33335648 -.01153517  00000-0 -51653-1 0  9994,2 53848  53.2174 215.4292 0001256  67.5532 247.6509 15.23553175 13474,6873.27,94.516,495.999,494.272,0.0
53848.0,STARLINK-4780,PAYLOAD,2022-12-10 14:00:01,15.22940965,0.0001385999999999,53.2174,214.2809,72.0717,174.7432,-0.052446,-0.01150303,0.0,0 STARLINK-4780,1 53848U 22114AG  22344.58334491 -.01150303  00000-0 -52446-1 0  9997,2 53848  53.2174 214.2809 0001386  72.0717 174.7432 15.22940965  1305,6875.111999999999,94.554,497.93,496.024,0.0
53848.0,STARLINK-4780,PAYLOAD,2022-12-11 00:00:00,15.2192485,0.000125,53.2175,212.373,67.396,304.3164,-0.054113,-0.01151443,0.0,0 STARLINK-4780,1 53848U 22114AG  22345.00001157 -.01151443  00000-0 -54113-1 0  9994,2 53848  53.2175 212.3730 0001250  67.3960 304.3164 15.21924850  1302,6878.172,94.617,500.897,499.177,0.0
53848.0,STARLINK-4780,PAYLOAD,2022-12-11 08:00:01,15.21110786,0.0001222,53.2174,210.8458,67.6369,330.9595,-0.055426,-0.01151345,0.0,0 STARLINK-4780,1 53848U 22114AG  22345.33335648 -.01151345  00000-0 -55426-1 0  9994,2 53848  53.2174 210.8458 0001222  67.6369 330.9595 15.21110786 13633,6880.626,94.668,503.332,501.65,0.0
53848.0,STARLINK-4780,PAYLOAD,2022-12-11 14:00:01,15.20497623,0.0001237,53.2175,209.7019,101.8325,226.1748,-0.05617,-0.01146345,0.0,0 STARLINK-4780,1 53848U 22114AG  22345.58334491 -.01146345  00000-0 -56170-1 0  9997,2 53848  53.2175 209.7019 0001237 101.8325 226.1748 15.20497623  1307,6882.476,94.706,505.192,503.489,0.0
53848.0,STARLINK-4780,PAYLOAD,2022-12-11 22:00:01,15.19686346,0.0001213,53.2174,208.1812,81.3618,271.815,-0.057734,-0.01150245,0.0,0 STARLINK-4780,1 53848U 22114AG  22345.91668981 -.01150245  00000-0 -57734-1 0  9999,2 53848  53.2174 208.1812 0001213  81.3618 271.8150 15.19686346  1305,6884.925,94.756,507.625,505.955,0.0
53848.0,STARLINK-4780,PAYLOAD,2022-12-12 08:00:01,15.18668582,0.0001296,53.2175,206.2796,82.5202,30.6045,-0.059408,-0.01149097,0.0,0 STARLINK-4780,1 53848U 22114AG  22346.33334491 -.01149097  00000-0 -59408-1 0  9995,2 53848  53.2175 206.2796 0001296  82.5202  30.6045 15.18668582 13789,6888.0,94.82,510.758,508.973,0.0
